STARLINK-6232           
1 57085U 23088AP  25277.89069443 -.00000944  00000+0 -54817-4 0  9999
2 57085  43.0020 221.0213 0001256 265.5696  94.5003 15.02540542127087
STARLINK-6247           
1 57086U 23088AQ  25277.90068436  .00001199  00000+0  10383-3 0  9993
2 57086  43.0015 221.0946 0000884 271.8442  88.2299 15.02534624127081
STARLINK-6251           
1 57087U 23088AR  25278.02032368  .00000297  00000+0  37046-4 0  9997
2 57087  43.0028 220.2736 0000989 272.0688  88.0041 15.02537029127103
STARLINK-6257           
1 57088U 23088AS  25277.96383469 -.00000985  00000+0 -57858-4 0  9990
2 57088  43.0022 220.7082 0001002 268.7823  91.2905 15.02546581127093
STARLINK-6259           
1 57089U 23088AT  25277.87736366 -.00002471  00000+0 -16797-3 0  9997
2 57089  43.0030 220.9169 0000652 223.3864 136.6927 15.02530324127088
STARLINK-6254           
1 57090U 23088AU  25277.88624924  .00003163  00000+0  24907-3 0  9995
2 57090  43.0020 220.9857 0001168 256.3622 103.7090 15.02543120127088
STARLINK-6262           
1 57091U 23088AV  25277.88070220  .00000714  00000+0  67890-4 0  9998
2 57091  43.0034 220.9428 0001135 273.5093  86.5619 15.02538516127083
STARLINK-6225           
1 57092U 23088AW  25277.88292601 -.00005059  00000+0 -35945-3 0  9992
2 57092  43.0042 220.9601 0001367 271.3180  88.7505 15.02558656127081
STARLINK-6229           
1 57093U 23088AX  25277.94052522  .00001562  00000+0  13067-3 0  9990
2 57093  43.0018 220.5301 0000792 265.6825  94.3927 15.02535412127098
STARLINK-6235           
1 57094U 23088AY  25276.27746512 -.00000849  00000+0 -47766-4 0  9998
2 57094  43.0048 229.5548 0001331 271.1160  88.9530 15.02528796126846
STARLINK-6132           
1 57101U 23090A   25278.02982602  .00001149  00000+0  10015-3 0  9995
2 57101  43.0054  40.8447 0001332 268.7339  91.3351 15.02535377126993
STARLINK-6111           
1 57102U 23090B   25276.42880205  .00004449  00000+0  34436-3 0  9993
2 57102  43.0026  49.4718 0001266 268.5412  91.5286 15.02522354126759
STARLINK-6130           
1 57104U 23090D   25278.02649942  .00000143  00000+0  25652-4 0  9992
2 57104  43.0048  40.8220 0001314 273.2456  86.8236 15.02540985126991
STARLINK-6097           
1 57105U 23090E   25276.36123072 -.00001468  00000+0 -93662-4 0  9998
2 57105  43.0055  49.8251 0001135 280.9161  79.1553 15.02518012126748
STARLINK-6118           
1 57106U 23090F   25277.61876562 -.00001903  00000+0 -12591-3 0  9992
2 57106  43.0063  42.9173 0001282 269.2305  90.8391 15.02522466126937
STARLINK-6131           
1 57107U 23090G   25277.80486023 -.00005175  00000+0 -36809-3 0  9996
2 57107  43.0056  41.7380 0001197 250.0784 109.9930 15.02556439126962
