[{"OBJECT_NAME":"STARLINK-6232","OBJECT_ID":"2023-088AP","EPOCH":"2025-10-04T21:22:35.998752","MEAN_MOTION":15.02540542,"ECCENTRICITY":0.0001256,"INCLINATION":43.002,"RA_OF_ASC_NODE":221.0213,"ARG_OF_PERICENTER":265.5696,"MEAN_ANOMALY":94.5003,"EPHEMERIS_TYPE":0,"CLASSIFICATION_TYPE":"U","NORAD_CAT_ID":57085,"ELEMENT_SET_NO":999,"REV_AT_EPOCH":12708,"BSTAR":-5.4817e-5,"MEAN_MOTION_DOT":-9.44e-6,"MEAN_MOTION_DDOT":0},{"OBJECT_NAME":"STARLINK-6247","OBJECT_ID":"2023-088AQ","EPOCH":"2025-10-04T21:36:59.128704","MEAN_MOTION":15.02534624,"ECCENTRICITY":8.84e-5,"INCLINATION":43.0015,"RA_OF_ASC_NODE":221.0946,"ARG_OF_PERICENTER":271.8442,"MEAN_ANOMALY":88.2299,"EPHEMERIS_TYPE":0,"CLASSIFICATION_TYPE":"U","NORAD_CAT_ID":57086,"ELEMENT_SET_NO":999,"REV_AT_EPOCH":12708,"BSTAR":0.00010383,"MEAN_MOTION_DOT":1.199e-5,"MEAN_MOTION_DDOT":0},{"OBJECT_NAME":"STARLINK-6251","OBJECT_ID":"2023-088AR","EPOCH":"2025-10-05T00:29:15.965952","MEAN_MOTION":15.02537029,"ECCENTRICITY":9.89e-5,"INCLINATION":43.0028,"RA_OF_ASC_NODE":220.2736,"ARG_OF_PERICENTER":272.0688,"MEAN_ANOMALY":88.0041,"EPHEMERIS_TYPE":0,"CLASSIFICATION_TYPE":"U","NORAD_CAT_ID":57087,"ELEMENT_SET_NO":999,"REV_AT_EPOCH":12710,"BSTAR":3.7046e-5,"MEAN_MOTION_DOT":2.97e-6,"MEAN_MOTION_DDOT":0},{"OBJECT_NAME":"STARLINK-6257","OBJECT_ID":"2023-088AS","EPOCH":"2025-10-04T23:07:55.317216","MEAN_MOTION":15.02546581,"ECCENTRICITY":0.0001002,"INCLINATION":43.0022,"RA_OF_ASC_NODE":220.7082,"ARG_OF_PERICENTER":268.7823,"MEAN_ANOMALY":91.2905,"EPHEMERIS_TYPE":0,"CLASSIFICATION_TYPE":"U","NORAD_CAT_ID":57088,"ELEMENT_SET_NO":999,"REV_AT_EPOCH":12709,"BSTAR":-5.7858e-5,"MEAN_MOTION_DOT":-9.85e-6,"MEAN_MOTION_DDOT":0},{"OBJECT_NAME":"STARLINK-6259","OBJECT_ID":"2023-088AT","EPOCH":"2025-10-04T21:03:24.220224","MEAN_MOTION":15.02530324,"ECCENTRICITY":6.52e-5,"INCLINATION":43.003,"RA_OF_ASC_NODE":220.9169,"ARG_OF_PERICENTER":223.3864,"MEAN_ANOMALY":136.6927,"EPHEMERIS_TYPE":0,"CLASSIFICATION_TYPE":"U","NORAD_CAT_ID":57089,"ELEMENT_SET_NO":999,"REV_AT_EPOCH":12708,"BSTAR":-0.00016797,"MEAN_MOTION_DOT":-2.471e-5,"MEAN_MOTION_DDOT":0},{"OBJECT_NAME":"STARLINK-6254","OBJECT_ID":"2023-088AU","EPOCH":"2025-10-04T21:16:11.934336","MEAN_MOTION":15.0254312,"ECCENTRICITY":0.0001168,"INCLINATION":43.002,"RA_OF_ASC_NODE":220.9857,"ARG_OF_PERICENTER":256.3622,"MEAN_ANOMALY":103.709,"EPHEMERIS_TYPE":0,"CLASSIFICATION_TYPE":"U","NORAD_CAT_ID":57090,"ELEMENT_SET_NO":999,"REV_AT_EPOCH":12708,"BSTAR":0.00024907,"MEAN_MOTION_DOT":3.163e-5,"MEAN_MOTION_DDOT":0},{"OBJECT_NAME":"STARLINK-6262","OBJECT_ID":"2023-088AV","EPOCH":"2025-10-04T21:08:12.670080","MEAN_MOTION":15.02538516,"ECCENTRICITY":0.0001135,"INCLINATION":43.0034,"RA_OF_ASC_NODE":220.9428,"ARG_OF_PERICENTER":273.5093,"MEAN_ANOMALY":86.5619,"EPHEMERIS_TYPE":0,"CLASSIFICATION_TYPE":"U","NORAD_CAT_ID":57091,"ELEMENT_SET_NO":999,"REV_AT_EPOCH":12708,"BSTAR":6.789e-5,"MEAN_MOTION_DOT":7.14e-6,"MEAN_MOTION_DDOT":0},{"OBJECT_NAME":"STARLINK-6225","OBJECT_ID":"2023-088AW","EPOCH":"2025-10-04T21:11:24.807264","MEAN_MOTION":15.02558656,"ECCENTRICITY":0.0001367,"INCLINATION":43.0042,"RA_OF_ASC_NODE":220.9601,"ARG_OF_PERICENTER":271.318,"MEAN_ANOMALY":88.7505,"EPHEMERIS_TYPE":0,"CLASSIFICATION_TYPE":"U","NORAD_CAT_ID":57092,"ELEMENT_SET_NO":999,"REV_AT_EPOCH":12708,"BSTAR":-0.00035945,"MEAN_MOTION_DOT":-5.059e-5,"MEAN_MOTION_DDOT":0},{"OBJECT_NAME":"STARLINK-6229","OBJECT_ID":"2023-088AX","EPOCH":"2025-10-04T22:34:21.379008","MEAN_MOTION":15.02535412,"ECCENTRICITY":7.92e-5,"INCLINATION":43.0018,"RA_OF_ASC_NODE":220.5301,"ARG_OF_PERICENTER":265.6825,"MEAN_ANOMALY":94.3927,"EPHEMERIS_TYPE":0,"CLASSIFICATION_TYPE":"U","NORAD_CAT_ID":57093,"ELEMENT_SET_NO":999,"REV_AT_EPOCH":12709,"BSTAR":0.00013067,"MEAN_MOTION_DOT":1.562e-5,"MEAN_MOTION_DDOT":0},{"OBJECT_NAME":"STARLINK-6235","OBJECT_ID":"2023-088AY","EPOCH":"2025-10-03T06:39:32.986368","MEAN_MOTION":15.02528796,"ECCENTRICITY":0.00013313,"INCLINATION":43.0048,"RA_OF_ASC_NODE":229.5548,"ARG_OF_PERICENTER":271.116,"MEAN_ANOMALY":88.953,"EPHEMERIS_TYPE":0,"CLASSIFICATION_TYPE":"U","NORAD_CAT_ID":57094,"ELEMENT_SET_NO":999,"REV_AT_EPOCH":12684,"BSTAR":-4.7766321e-5,"MEAN_MOTION_DOT":-8.49e-6,"MEAN_MOTION_DDOT":0},{"OBJECT_NAME":"STARLINK-6132","OBJECT_ID":"2023-090A","EPOCH":"2025-10-05T00:42:56.968128","MEAN_MOTION":15.02535377,"ECCENTRICITY":0.0001332,"INCLINATION":43.0054,"RA_OF_ASC_NODE":40.8447,"ARG_OF_PERICENTER":268.7339,"MEAN_ANOMALY":91.3351,"EPHEMERIS_TYPE":0,"CLASSIFICATION_TYPE":"U","NORAD_CAT_ID":57101,"ELEMENT_SET_NO":999,"REV_AT_EPOCH":12699,"BSTAR":0.00010015,"MEAN_MOTION_DOT":1.149e-5,"MEAN_MOTION_DDOT":0},{"OBJECT_NAME":"STARLINK-6111","OBJECT_ID":"2023-090B","EPOCH":"2025-10-03T10:17:28.497120","MEAN_MOTION":15.02522354,"ECCENTRICITY":0.00012665,"INCLINATION":43.0026,"RA_OF_ASC_NODE":49.4718,"ARG_OF_PERICENTER":268.5412,"MEAN_ANOMALY":91.5286,"EPHEMERIS_TYPE":0,"CLASSIFICATION_TYPE":"U","NORAD_CAT_ID":57102,"ELEMENT_SET_NO":999,"REV_AT_EPOCH":12675,"BSTAR":0.00034436133,"MEAN_MOTION_DOT":4.449e-5,"MEAN_MOTION_DDOT":0},{"OBJECT_NAME":"STARLINK-6130","OBJECT_ID":"2023-090D","EPOCH":"2025-10-05T00:38:09.549888","MEAN_MOTION":15.02540985,"ECCENTRICITY":0.0001314,"INCLINATION":43.0048,"RA_OF_ASC_NODE":40.822,"ARG_OF_PERICENTER":273.2456,"MEAN_ANOMALY":86.8236,"EPHEMERIS_TYPE":0,"CLASSIFICATION_TYPE":"U","NORAD_CAT_ID":57104,"ELEMENT_SET_NO":999,"REV_AT_EPOCH":12699,"BSTAR":2.5652e-5,"MEAN_MOTION_DOT":1.43e-6,"MEAN_MOTION_DDOT":0},{"OBJECT_NAME":"STARLINK-6097","OBJECT_ID":"2023-090E","EPOCH":"2025-10-03T08:40:10.334208","MEAN_MOTION":15.02518012,"ECCENTRICITY":0.00011357,"INCLINATION":43.0055,"RA_OF_ASC_NODE":49.8251,"ARG_OF_PERICENTER":280.9161,"MEAN_ANOMALY":79.1553,"EPHEMERIS_TYPE":0,"CLASSIFICATION_TYPE":"U","NORAD_CAT_ID":57105,"ELEMENT_SET_NO":999,"REV_AT_EPOCH":12674,"BSTAR":-9.3661649e-5,"MEAN_MOTION_DOT":-1.468e-5,"MEAN_MOTION_DDOT":0},{"OBJECT_NAME":"STARLINK-6118","OBJECT_ID":"2023-090F","EPOCH":"2025-10-04T14:51:01.349568","MEAN_MOTION":15.02522466,"ECCENTRICITY":0.0001282,"INCLINATION":43.0063,"RA_OF_ASC_NODE":42.9173,"ARG_OF_PERICENTER":269.2305,"MEAN_ANOMALY":90.8391,"EPHEMERIS_TYPE":0,"CLASSIFICATION_TYPE":"U","NORAD_CAT_ID":57106,"ELEMENT_SET_NO":999,"REV_AT_EPOCH":12693,"BSTAR":-0.00012591,"MEAN_MOTION_DOT":-1.903e-5,"MEAN_MOTION_DDOT":0},{"OBJECT_NAME":"STARLINK-6131","OBJECT_ID":"2023-090G","EPOCH":"2025-10-04T19:18:59.923872","MEAN_MOTION":15.02556439,"ECCENTRICITY":0.0001197,"INCLINATION":43.0056,"RA_OF_ASC_NODE":41.738,"ARG_OF_PERICENTER":250.0784,"MEAN_ANOMALY":109.993,"EPHEMERIS_TYPE":0,"CLASSIFICATION_TYPE":"U","NORAD_CAT_ID":57107,"ELEMENT_SET_NO":999,"REV_AT_EPOCH":12696,"BSTAR":-0.00036809,"MEAN_MOTION_DOT":-5.175e-5,"MEAN_MOTION_DDOT":0}]
